*******************************************************************************
Ephemeris / WWW_USER Mon Mar 24 08:32:33 2025 Pasadena, USA      / Horizons    
*******************************************************************************
Target body name: (2018 WV1)                      {source: JPL#17}
Center body name: Earth (399)                     {source: DE441}
Center-site name: Mauna Kea
*******************************************************************************
Start time      : A.D. 2018-Sep-03 04:45:00.0000 UT      
Stop  time      : A.D. 2018-Sep-03 15:57:00.0000 UT      
Step-size       : 1 minutes
*******************************************************************************
Target pole/equ : undefined
Target radii    : undefined                                                    
Center geodetic : 204.5278, 19.8260847, 4.21024   {E-lon(deg),Lat(deg),Alt(km)}
Center cylindric: 204.5278, 6006.35451, 2151.0229 {E-lon(deg),Dxy(km),Dz(km)}
Center pole/equ : ITRF93                          {East-longitude positive}
Center radii    : 6378.137, 6378.137, 6356.752 km {Equator_a, b, pole_c}       
Target primary  : Sun
Vis. interferer : MOON (R_eq= 1737.400) km        {source: DE441}
Rel. light bend : Sun                             {source: DE441}
Rel. lght bnd GM: 1.3271E+11 km^3/s^2                                          
Small-body perts: Yes                             {source: SB441-N16}
Atmos refraction: NO (AIRLESS)
RA format       : HMS
Time format     : CAL 
Calendar mode   : Mixed Julian/Gregorian
RTS-only print  : NO       
EOP file        : eop.250321.p250617                                           
EOP coverage    : DATA-BASED 1962-JAN-20 TO 2025-MAR-21. PREDICTS-> 2025-JUN-16
Units conversion: 1 au= 149597870.700 km, c= 299792.458 km/s, 1 day= 86400.0 s 
Table cut-offs 1: Elevation (-90.0deg=NO ),Airmass (>38.000=NO), Daylight (YES)
Table cut-offs 2: Solar elongation (  0.0,180.0=NO ),Local Hour Angle( 0.0=NO )
Table cut-offs 3: RA/DEC angular rate (     0.0=NO )                           
*******************************************************************************
Initial IAU76/J2000 heliocentric ecliptic osculating elements (au, days, deg.):
  EPOCH=  2458458.5 ! 2018-Dec-06.00 (TDB)         Residual RMS= .12928        
   EC= .06869100257422787  QR= .9715505345748198   TP= 2458416.866413563       
   OM= 248.5061090469913   W=  141.3742304527303   IN= 1.905403987972275       
  Equivalent ICRF heliocentric cartesian coordinates (au, au/d):
   X= 2.787163119783287E-01  Y= 8.719775267121872E-01  Z= 3.748421051204766E-01
  VX=-1.676682657337402E-02 VY= 5.516972965834891E-03 VZ= 1.749720915605096E-03
Asteroid physical parameters (km, seconds, rotational period in hours):        
   GM= n.a.                RAD= n.a.               ROTPER= n.a.                
   H= 30.3                 G= .150                 B-V= n.a.                   
                           ALBEDO= n.a.            STYP= n.a.                  
*******************************************************************************
 Date__(UT)__HR:MN     R.A._________(ICRF)_________DEC
******************************************************
$$SOE
 2018-Sep-03 04:45 C   01 29 00.913297 +13 47 02.54169
 2018-Sep-03 04:46 C   01 29 00.977998 +13 47 03.10702
 2018-Sep-03 04:47 C   01 29 01.042640 +13 47 03.67249
 2018-Sep-03 04:48 C   01 29 01.107224 +13 47 04.23809
 2018-Sep-03 04:49 C   01 29 01.171748 +13 47 04.80383
 2018-Sep-03 04:50 C   01 29 01.236213 +13 47 05.36970
 2018-Sep-03 04:51 C   01 29 01.300619 +13 47 05.93571
 2018-Sep-03 04:52 C   01 29 01.364965 +13 47 06.50185
 2018-Sep-03 04:53 C   01 29 01.429251 +13 47 07.06812
 2018-Sep-03 04:54 C   01 29 01.493477 +13 47 07.63452
 2018-Sep-03 04:55 C   01 29 01.557643 +13 47 08.20105
 2018-Sep-03 04:56 C   01 29 01.621749 +13 47 08.76771
 2018-Sep-03 04:57 C   01 29 01.685794 +13 47 09.33450
 2018-Sep-03 04:58 C   01 29 01.749779 +13 47 09.90141
 2018-Sep-03 04:59 N   01 29 01.813703 +13 47 10.46846
 2018-Sep-03 05:00 N   01 29 01.877566 +13 47 11.03562
 2018-Sep-03 05:01 N   01 29 01.941368 +13 47 11.60292
 2018-Sep-03 05:02 N   01 29 02.005108 +13 47 12.17033
 2018-Sep-03 05:03 N   01 29 02.068787 +13 47 12.73787
 2018-Sep-03 05:04 N   01 29 02.132405 +13 47 13.30553
 2018-Sep-03 05:05 N   01 29 02.195961 +13 47 13.87331
 2018-Sep-03 05:06 N   01 29 02.259454 +13 47 14.44121
 2018-Sep-03 05:07 N   01 29 02.322886 +13 47 15.00923
 2018-Sep-03 05:08 N   01 29 02.386256 +13 47 15.57737
 2018-Sep-03 05:09 N   01 29 02.449563 +13 47 16.14562
 2018-Sep-03 05:10 N   01 29 02.512808 +13 47 16.71399
 2018-Sep-03 05:11 N   01 29 02.575990 +13 47 17.28248
 2018-Sep-03 05:12 N   01 29 02.639109 +13 47 17.85108
 2018-Sep-03 05:13 N   01 29 02.702166 +13 47 18.41979
 2018-Sep-03 05:14 N   01 29 02.765159 +13 47 18.98861
 2018-Sep-03 05:15 N   01 29 02.828089 +13 47 19.55755
 2018-Sep-03 05:16 N   01 29 02.890956 +13 47 20.12660
 2018-Sep-03 05:17 N   01 29 02.953759 +13 47 20.69575
 2018-Sep-03 05:18 N   01 29 03.016498 +13 47 21.26502
 2018-Sep-03 05:19 N   01 29 03.079174 +13 47 21.83439
 2018-Sep-03 05:20 N   01 29 03.141786 +13 47 22.40387
 2018-Sep-03 05:21 N   01 29 03.204333 +13 47 22.97346
 2018-Sep-03 05:22 N   01 29 03.266817 +13 47 23.54315
 2018-Sep-03 05:23 N   01 29 03.329236 +13 47 24.11294
 2018-Sep-03 05:24 N   01 29 03.391590 +13 47 24.68284
 2018-Sep-03 05:25 A   01 29 03.453880 +13 47 25.25283
 2018-Sep-03 05:26 A   01 29 03.516106 +13 47 25.82293
 2018-Sep-03 05:27 A   01 29 03.578266 +13 47 26.39313
 2018-Sep-03 05:28 A   01 29 03.640361 +13 47 26.96343
 2018-Sep-03 05:29 A   01 29 03.702391 +13 47 27.53382
 2018-Sep-03 05:30 A   01 29 03.764356 +13 47 28.10431
 2018-Sep-03 05:31 A   01 29 03.826256 +13 47 28.67490
 2018-Sep-03 05:32 A   01 29 03.888090 +13 47 29.24559
 2018-Sep-03 05:33 A   01 29 03.949859 +13 47 29.81636
 2018-Sep-03 05:34 A   01 29 04.011561 +13 47 30.38723
 2018-Sep-03 05:35 A   01 29 04.073198 +13 47 30.95819
 2018-Sep-03 05:36 A   01 29 04.134769 +13 47 31.52925
 2018-Sep-03 05:37 A   01 29 04.196274 +13 47 32.10039
 2018-Sep-03 05:38 A   01 29 04.257712 +13 47 32.67162
 2018-Sep-03 05:39 A   01 29 04.319085 +13 47 33.24294
 2018-Sep-03 05:40 A   01 29 04.380390 +13 47 33.81435
 2018-Sep-03 05:41 A   01 29 04.441629 +13 47 34.38584
 2018-Sep-03 05:42 A   01 29 04.502802 +13 47 34.95742
 2018-Sep-03 05:43 A   01 29 04.563908 +13 47 35.52908
 2018-Sep-03 05:44 A   01 29 04.624947 +13 47 36.10082
 2018-Sep-03 05:45 A   01 29 04.685918 +13 47 36.67265
 2018-Sep-03 05:46 A   01 29 04.746823 +13 47 37.24455
 2018-Sep-03 05:47 A   01 29 04.807661 +13 47 37.81654
 2018-Sep-03 05:48 A   01 29 04.868431 +13 47 38.38861
 2018-Sep-03 05:49 A   01 29 04.929134 +13 47 38.96075
 2018-Sep-03 05:50 A   01 29 04.989769 +13 47 39.53297
 2018-Sep-03 05:51     01 29 05.050337 +13 47 40.10527
 2018-Sep-03 05:52     01 29 05.110837 +13 47 40.67764
 2018-Sep-03 05:53     01 29 05.171269 +13 47 41.25008
 2018-Sep-03 05:54     01 29 05.231633 +13 47 41.82260
 2018-Sep-03 05:55     01 29 05.291929 +13 47 42.39519
 2018-Sep-03 05:56     01 29 05.352158 +13 47 42.96785
 2018-Sep-03 05:57     01 29 05.412318 +13 47 43.54058
 2018-Sep-03 05:58     01 29 05.472409 +13 47 44.11338
 2018-Sep-03 05:59     01 29 05.532433 +13 47 44.68625
 2018-Sep-03 06:00     01 29 05.592387 +13 47 45.25918
 2018-Sep-03 06:01     01 29 05.652274 +13 47 45.83218
 2018-Sep-03 06:02     01 29 05.712091 +13 47 46.40524
 2018-Sep-03 06:03     01 29 05.771840 +13 47 46.97837
 2018-Sep-03 06:04     01 29 05.831521 +13 47 47.55156
 2018-Sep-03 06:05     01 29 05.891132 +13 47 48.12481
 2018-Sep-03 06:06     01 29 05.950674 +13 47 48.69812
 2018-Sep-03 06:07     01 29 06.010148 +13 47 49.27149
 2018-Sep-03 06:08     01 29 06.069552 +13 47 49.84492
 2018-Sep-03 06:09     01 29 06.128887 +13 47 50.41841
 2018-Sep-03 06:10     01 29 06.188153 +13 47 50.99195
 2018-Sep-03 06:11     01 29 06.247349 +13 47 51.56555
 2018-Sep-03 06:12     01 29 06.306476 +13 47 52.13920
 2018-Sep-03 06:13     01 29 06.365533 +13 47 52.71290
 2018-Sep-03 06:14     01 29 06.424521 +13 47 53.28666
 2018-Sep-03 06:15     01 29 06.483440 +13 47 53.86047
 2018-Sep-03 06:16     01 29 06.542288 +13 47 54.43432
 2018-Sep-03 06:17     01 29 06.601067 +13 47 55.00823
 2018-Sep-03 06:18     01 29 06.659776 +13 47 55.58219
 2018-Sep-03 06:19     01 29 06.718415 +13 47 56.15619
 2018-Sep-03 06:20     01 29 06.776985 +13 47 56.73023
 2018-Sep-03 06:21     01 29 06.835484 +13 47 57.30433
 2018-Sep-03 06:22     01 29 06.893913 +13 47 57.87846
 2018-Sep-03 06:23     01 29 06.952272 +13 47 58.45264
 2018-Sep-03 06:24     01 29 07.010561 +13 47 59.02686
 2018-Sep-03 06:25     01 29 07.068780 +13 47 59.60112
 2018-Sep-03 06:26     01 29 07.126928 +13 48 00.17542
 2018-Sep-03 06:27     01 29 07.185006 +13 48 00.74975
 2018-Sep-03 06:28     01 29 07.243013 +13 48 01.32413
 2018-Sep-03 06:29     01 29 07.300951 +13 48 01.89854
 2018-Sep-03 06:30     01 29 07.358817 +13 48 02.47298
 2018-Sep-03 06:31  r  01 29 07.416613 +13 48 03.04746
 2018-Sep-03 06:32     01 29 07.474339 +13 48 03.62198
 2018-Sep-03 06:33     01 29 07.531994 +13 48 04.19652
 2018-Sep-03 06:34     01 29 07.589578 +13 48 04.77110
 2018-Sep-03 06:35     01 29 07.647091 +13 48 05.34570
 2018-Sep-03 06:36     01 29 07.704534 +13 48 05.92034
 2018-Sep-03 06:37     01 29 07.761906 +13 48 06.49500
 2018-Sep-03 06:38     01 29 07.819207 +13 48 07.06969
 2018-Sep-03 06:39     01 29 07.876437 +13 48 07.64440
 2018-Sep-03 06:40     01 29 07.933596 +13 48 08.21914
 2018-Sep-03 06:41     01 29 07.990685 +13 48 08.79390
 2018-Sep-03 06:42     01 29 08.047702 +13 48 09.36868
 2018-Sep-03 06:43     01 29 08.104648 +13 48 09.94349
 2018-Sep-03 06:44     01 29 08.161524 +13 48 10.51831
 2018-Sep-03 06:45     01 29 08.218328 +13 48 11.09316
 2018-Sep-03 06:46     01 29 08.275061 +13 48 11.66802
 2018-Sep-03 06:47     01 29 08.331723 +13 48 12.24290
